NORAD_CAT_ID,OBJECT_NAME,OBJECT_TYPE,EPOCH,MEAN_MOTION,ECCENTRICITY,INCLINATION,RA_OF_ASC_NODE,ARG_OF_PERICENTER,MEAN_ANOMALY,BSTAR,MEAN_MOTION_DOT,MEAN_MOTION_DDOT,TLE_LINE0,TLE_LINE1,TLE_LINE2,SEMIMAJOR_AXIS,PERIOD,APOGEE,PERIGEE,DECAYED
52502.0,STARLINK-3912,PAYLOAD,2022-08-03 06:00:00,15.70362507,0.0003659,53.2173,186.5959,332.2322,251.8953,-0.0093101,-0.01044032,0.0,0 STARLINK-3912,1 52502U 22049BD  22215.25001157 -.01044032  00000-0 -93101-2 0  9996,2 52502  53.2173 186.5959 0003659 332.2322 251.8953 15.70362507 14150,6735.996999999999,91.699,360.327,355.397,0.0
52502.0,STARLINK-3912,PAYLOAD,2022-08-03 14:00:01,15.69599896,0.0003487,53.2174,184.952,315.7631,353.4273,-0.0095422999999999,-0.01037021,0.0,0 STARLINK-3912,1 52502U 22049BD  22215.58334491 -.01037021  00000-0 -95423-2 0  9991,2 52502  53.2174 184.9520 0003487 315.7631 353.4273 15.69599896  1303,6738.179,91.743,362.393,357.694,0.0
52502.0,STARLINK-3912,PAYLOAD,2022-08-03 22:00:01,15.68848987,0.0001412,53.2176,183.31,265.4093,127.9923,-0.0099891,-0.0104972,0.0,0 STARLINK-3912,1 52502U 22049BD  22215.91668981 -.01049720  00000-0 -99891-2 0  9994,2 52502  53.2176 183.3100 0001412 265.4093 127.9923 15.68848987 14263,6740.329000000002,91.787,363.146,361.242,0.0
52502.0,STARLINK-3912,PAYLOAD,2022-08-04 14:00:01,15.67333635,1.7199999999999998e-05,53.2174,180.0345,61.3812,137.5142,-0.010724,-0.01057289,0.0,0 STARLINK-3912,1 52502U 22049BD  22216.58334491 -.01057289  00000-0 -10724-1 0  9990,2 52502  53.2174 180.0345 0000172  61.3812 137.5142 15.67333635  1309,6744.6730000000025,91.876,366.654,366.422,0.0
52502.0,STARLINK-3912,PAYLOAD,2022-08-04 22:00:00,15.66570577,0.000113,53.2175,178.3983,80.0977,200.2086,-0.010967,-0.01049287,0.0,0 STARLINK-3912,1 52502U 22049BD  22216.91667824 -.01049287  00000-0 -10967-1 0  9994,2 52502  53.2175 178.3983 0001130  80.0977 200.2086 15.66570577  1305,6746.863,91.921,369.49,367.965,0.0
52502.0,STARLINK-3912,PAYLOAD,2022-08-05 14:00:01,15.65051952,0.0001051,53.2174,175.1338,84.3327,356.1222,-0.011677,-0.01050451,0.0,0 STARLINK-3912,1 52502U 22049BD  22217.58335648 -.01050451  00000-0 -11677-1 0  9998,2 52502  53.2174 175.1338 0001051  84.3327 356.1222 15.65051952  1304,6751.226,92.01,373.801,372.382,0.0
52502.0,STARLINK-3912,PAYLOAD,2022-08-05 22:00:00,15.64291097,0.0001235,53.2176,173.5033,79.9125,79.1505,-0.011998,-0.01047328,0.0,0 STARLINK-3912,1 52502U 22049BD  22217.91667824 -.01047328  00000-0 -11998-1 0  9994,2 52502  53.2176 173.5033 0001235  79.9125  79.1505 15.64291097  1301,6753.415,92.054,376.114,374.446,0.0
52502.0,STARLINK-3912,PAYLOAD,2022-08-06 14:00:01,15.62774462,0.0001049,53.2175,170.2495,89.1624,224.5072,-0.012801,-0.01067982,0.0,0 STARLINK-3912,1 52502U 22049BD  22218.58334491 -.01067982  00000-0 -12801-1 0  9991,2 52502  53.2175 170.2495 0001049  89.1624 224.5072 15.62774462 14675,6757.784000000002,92.144,380.358,378.94,0.0
52502.0,STARLINK-3912,PAYLOAD,2022-08-06 22:00:00,15.62013236,0.0001035,53.2177,168.6249,86.0944,303.5104,-0.013138,-0.01064175,0.0,0 STARLINK-3912,1 52502U 22049BD  22218.91667824 -.01064175  00000-0 -13138-1 0  9992,2 52502  53.2177 168.6249 0001035  86.0944 303.5104 15.62013236  1306,6759.979,92.189,382.544,381.145,0.0
52502.0,STARLINK-3912,PAYLOAD,2022-08-07 11:42:00,15.61429751,0.0001947,53.2134,165.8595,159.859,200.2502,-0.0058006,-0.00476403,0.0,0 STARLINK-3912,1 52502U 22049BD  22219.48751157 -.00476403  00000-0 -58006-2 0  9992,2 52502  53.2134 165.8595 0001947 159.8590 200.2502 15.61429751 14828,6761.663000000001,92.223,384.845,382.212,0.0
52502.0,STARLINK-3912,PAYLOAD,2022-08-07 20:55:25,15.6066745,0.0002238,53.2145,163.9936,123.87,236.2528,-0.0052258999999999,-0.00419698,0.0,0 STARLINK-3912,1 52502U 22049BD  22219.87182491 -.00419698  00000-0 -52259-2 0  9991,2 52502  53.2145 163.9936 0002238 123.8700 236.2528 15.60667450 14721,6763.865,92.268,387.244,384.216,0.0
52502.0,STARLINK-3912,PAYLOAD,2022-08-08 04:36:53,15.597795800000002,0.0001393,53.214,162.4382,101.198,258.91900000000004,-0.0065738999999999,-0.00504744,0.0,0 STARLINK-3912,1 52502U 22049BD  22220.19228952 -.00504744  00000-0 -65739-2 0  9995,2 52502  53.2140 162.4382 0001393 101.1980 258.9190 15.59779580 14930,6766.431,92.321,389.239,387.354,0.0
52502.0,STARLINK-3912,PAYLOAD,2022-08-08 14:00:01,15.58215234,0.0001006,53.2175,160.5309,83.6136,312.0401,-0.015189,-0.01062846,0.0,0 STARLINK-3912,1 52502U 22049BD  22220.58335648 -.01062846  00000-0 -15189-1 0  9995,2 52502  53.2175 160.5309 0001006  83.6136 312.0401 15.58215234  1308,6770.959,92.413,393.506,392.143,0.0
52502.0,STARLINK-3912,PAYLOAD,2022-08-08 22:00:00,15.57455429,0.0001181,53.2176,158.9177,76.0019,30.0456,-0.015614,-0.01061767,0.0,0 STARLINK-3912,1 52502U 22049BD  22220.91667824 -.01061767  00000-0 -15614-1 0  9990,2 52502  53.2176 158.9177 0001181  76.0019  30.0456 15.57455429  1301,6773.161,92.459,395.826,394.226,0.0
52502.0,STARLINK-3912,PAYLOAD,2022-08-09 14:00:01,15.55937099,0.0001192,53.2176,155.6964,90.1257,154.1012,-0.0165419999999999,-0.01062516,0.0,0 STARLINK-3912,1 52502U 22049BD  22221.58334491 -.01062516  00000-0 -16542-1 0  9999,2 52502  53.2176 155.6964 0001192  90.1257 154.1012 15.55937099 15141,6777.566999999999,92.549,400.24,398.624,0.0
52502.0,STARLINK-3912,PAYLOAD,2022-08-09 22:00:00,15.55177511,0.0001107999999999,53.2176,154.0889,92.0106,219.9367,-0.017005,-0.01061872,0.0,0 STARLINK-3912,1 52502U 22049BD  22221.91667824 -.01061872  00000-0 -17005-1 0  9994,2 52502  53.2176 154.0889 0001108  92.0106 219.9367 15.55177511  1302,6779.774,92.594,402.39,400.887,0.0
52502.0,STARLINK-3912,PAYLOAD,2022-08-10 14:00:01,15.53656268,0.0001092,53.2174,150.8785,80.1066,4.5454,-0.017918,-0.01058225,0.0,0 STARLINK-3912,1 52502U 22049BD  22222.58334491 -.01058225  00000-0 -17918-1 0  9990,2 52502  53.2174 150.8785 0001092  80.1066   4.5454 15.53656268  1308,6784.199000000001,92.685,406.804,405.323,0.0
52502.0,STARLINK-3912,PAYLOAD,2022-08-10 17:07:18,15.53360895,0.0001139999999999,53.2172,150.2525,78.1175,14.3749,-0.018157,-0.01060589,0.0,0 STARLINK-3912,1 52502U 22049BD  22222.71341435 -.01060589  00000-0 -18157-1 0  9993,2 52502  53.2172 150.2525 0001140  78.1175  14.3749 15.53360895 15325,6785.058000000001,92.702,407.697,406.15,0.0
52502.0,STARLINK-3912,PAYLOAD,2022-08-10 22:00:00,15.52897799,0.0001252999999999,53.2175,149.2765,78.524,71.1101,-0.018447,-0.01059598,0.0,0 STARLINK-3912,1 52502U 22049BD  22222.91667824 -.01059598  00000-0 -18447-1 0  9998,2 52502  53.2175 149.2765 0001253  78.5240  71.1101 15.52897799  1307,6786.406999999997,92.73,409.12300000000016,407.422,0.0
52502.0,STARLINK-3912,PAYLOAD,2022-08-11 14:00:01,15.51379254,0.0001105,53.2175,146.077,90.8111,186.0507,-0.019512,-0.0106062999999999,0.0,0 STARLINK-3912,1 52502U 22049BD  22223.58334491 -.01060630  00000-0 -19512-1 0  9996,2 52502  53.2175 146.0770 0001105  90.8111 186.0507 15.51379254  1304,6790.835,92.821,413.451,411.95,0.0
52502.0,STARLINK-3912,PAYLOAD,2022-08-11 22:00:00,15.50496527,0.0001058,53.2175,144.4811,86.2167,252.9077,-0.012195,-0.00651782,0.0,0 STARLINK-3912,1 52502U 22049BD  22223.91667824 -.00651782  00000-0 -12195-1 0  9995,2 52502  53.2175 144.4811 0001058  86.2167 252.9077 15.50496527 15514,6793.4119999999975,92.873,415.996,414.559,0.0
52502.0,STARLINK-3912,PAYLOAD,2022-08-12 06:00:00,15.49904584,0.0001092,53.2173,142.8882,93.2019,307.3043,-0.00054942,-0.00031529,0.0,0 STARLINK-3912,1 52502U 22049BD  22224.25001157 -.00031529  00000-0 -54942-3 0  9993,2 52502  53.2173 142.8882 0001092  93.2019 307.3043 15.49904584 15562,6795.142,92.909,417.749,416.265,0.0
52502.0,STARLINK-3912,PAYLOAD,2022-08-12 14:00:01,15.4993574,8.05e-05,53.2161,141.2982,86.3711,15.069,-0.000317,-0.00018432,0.0,0 STARLINK-3912,1 52502U 22049BD  22224.58334491 -.00018432  00000-0 -31700-3 0  9994,2 52502  53.2161 141.2982 0000805  86.3711  15.0690 15.49935740  1302,6795.051,92.907,417.463,416.369,0.0
52502.0,STARLINK-3912,PAYLOAD,2022-08-12 22:00:01,15.49932737,0.0001065,53.215,139.7089,83.5622,78.9111,-0.0014226,-0.00080501,0.0,0 STARLINK-3912,1 52502U 22049BD  22224.91668981 -.00080501  00000-0 -14226-2 0  9994,2 52502  53.2150 139.7089 0001065  83.5622  78.9111 15.49932737  1308,6795.06,92.907,417.648,416.201,0.0
52502.0,STARLINK-3912,PAYLOAD,2022-08-13 14:00:01,15.49780598,0.0001262,53.2164,136.5168,77.9743,206.3199,0.00095473,0.00053908,0.0,0 STARLINK-3912,1 52502U 22049BD  22225.58334491  .00053908  00000-0  95473-3 0  9997,2 52502  53.2164 136.5168 0001262  77.9743 206.3199 15.49780598  1305,6795.504,92.916,418.227,416.512,0.0
52502.0,STARLINK-3912,PAYLOAD,2022-08-13 22:00:00,15.49889155,0.0001363,53.2175,134.9218,77.5894,267.496,-9.4887e-05,-5.834e-05,0.0,0 STARLINK-3912,1 52502U 22049BD  22225.91667824 -.00005834  00000-0 -94887-4 0  9999,2 52502  53.2175 134.9218 0001363  77.5894 267.4960 15.49889155  1303,6795.187,92.91,417.978,416.126,0.0
52502.0,STARLINK-3912,PAYLOAD,2022-08-14 14:00:01,15.50126696,9.06e-05,53.2158,131.7372,95.2532,11.7966,-0.015906,-0.00832887,0.0,0 STARLINK-3912,1 52502U 22049BD  22226.58334491 -.00832887  00000-0 -15906-1 0  9992,2 52502  53.2158 131.7372 0000906  95.2532  11.7966 15.50126696  1300,6794.493,92.896,416.973,415.742,0.0
52502.0,STARLINK-3912,PAYLOAD,2022-08-14 22:00:00,15.49649894,0.0001322,53.2169,130.1407,83.5262,84.3308,-0.014536,-0.00754845,0.0,0 STARLINK-3912,1 52502U 22049BD  22226.91667824 -.00754845  00000-0 -14536-1 0  9993,2 52502  53.2169 130.1407 0001322  83.5262  84.3308 15.49649894  1301,6795.886,92.924,418.65,416.853,0.0
52502.0,STARLINK-3912,PAYLOAD,2022-08-15 00:00:00,15.49391559,0.0001334,53.2168,129.7444,104.9455,168.1411,-0.012879,-0.00661041,0.0,0 STARLINK-3912,1 52502U 22049BD  22227.00001157 -.00661041  00000-0 -12879-1 0  9998,2 52502  53.2168 129.7444 0001334 104.9455 168.1411 15.49391559 15987,6796.642,92.94,419.414,417.6,0.0
